NORAD_CAT_ID,OBJECT_NAME,OBJECT_TYPE,EPOCH,MEAN_MOTION,ECCENTRICITY,INCLINATION,RA_OF_ASC_NODE,ARG_OF_PERICENTER,MEAN_ANOMALY,BSTAR,MEAN_MOTION_DOT,MEAN_MOTION_DDOT,TLE_LINE0,TLE_LINE1,TLE_LINE2,SEMIMAJOR_AXIS,PERIOD,APOGEE,PERIGEE,DECAYED
52638.0,STARLINK-3941,PAYLOAD,2024-06-08 14:47:59,15.08864474,0.0001363,53.2173,258.0307,95.4371,264.6776,0.00049205,7.557e-05,0.0,0 STARLINK-3941,1 52638U 22052AS  24160.61666625  .00007557  00000-0  49205-3 0  9993,2 52638  53.2173 258.0307 0001363  95.4371 264.6776 15.08864474114892,6917.806,95.436,540.613,538.728,0.0
52638.0,STARLINK-3941,PAYLOAD,2024-06-09 11:28:01,15.08831223,0.0001718,53.216,254.1647,116.5682,243.5486,-0.00015319,-2.725e-05,0.0,0 STARLINK-3941,1 52638U 22052AS  24161.47779926 -.00002725  00000-0 -15319-3 0  9990,2 52638  53.2160 254.1647 0001718 116.5682 243.5486 15.08831223115022,6917.907,95.438,540.961,538.584,0.0
52638.0,STARLINK-3941,PAYLOAD,2024-06-09 22:35:43,15.08835151,0.0001335,53.2158,252.0845,107.8654,252.2483,1.1342e-05,-1.07e-06,0.0,0 STARLINK-3941,1 52638U 22052AS  24161.94148091 -.00000107  00000-0  11342-4 0  9999,2 52638  53.2158 252.0845 0001335 107.8654 252.2483 15.08835151115526,6917.895,95.438,540.684,538.837,0.0
52638.0,STARLINK-3941,PAYLOAD,2024-06-10 12:54:12,15.08852382,0.0001134,53.2161,249.4101,102.9714,257.1405,0.00082394,0.00012854,0.0,0 STARLINK-3941,1 52638U 22052AS  24162.53763996  .00012854  00000-0  82394-3 0  9997,2 52638  53.2161 249.4101 0001134 102.9714 257.1405 15.08852382115180,6917.843,95.437,540.492,538.923,0.0
52638.0,STARLINK-3941,PAYLOAD,2024-06-10 22:26:30,15.08850723,0.0001215,53.2158,247.6266,97.4233,262.6897,0.00084892,0.00013252,0.0,0 STARLINK-3941,1 52638U 22052AS  24162.93508029  .00013252  00000-0  84892-3 0  9993,2 52638  53.2158 247.6266 0001215  97.4233 262.6897 15.08850723115679,6917.848,95.437,540.553,538.872,0.0
52638.0,STARLINK-3941,PAYLOAD,2024-06-11 04:48:03,15.08854857,0.0001591,53.2177,246.4405,113.3862,246.7297,0.00024921,3.682e-05,0.0,0 STARLINK-3941,1 52638U 22052AS  24163.20003696  .00003682  00000-0  24921-3 0  9997,2 52638  53.2177 246.4405 0001591 113.3862 246.7297 15.08854857115281,6917.835,95.437,540.801,538.599,0.0
52638.0,STARLINK-3941,PAYLOAD,2024-06-11 12:44:59,15.08844549,0.0001159,53.2159,244.951,103.3591,256.753,0.0002595,3.845e-05,0.0,0 STARLINK-3941,1 52638U 22052AS  24163.53123969  .00003845  00000-0  25950-3 0  9993,2 52638  53.2159 244.9510 0001159 103.3591 256.7530 15.08844549115760,6917.866,95.437,540.533,538.93,0.0
52638.0,STARLINK-3941,PAYLOAD,2024-06-11 22:17:17,15.08841707,0.0001042,53.2152,243.1671,105.8535,254.2572,6.56e-05,7.56e-06,0.0,0 STARLINK-3941,1 52638U 22052AS  24163.92867894  .00000756  00000-0  65600-4 0  9993,2 52638  53.2152 243.1671 0001042 105.8535 254.2572 15.08841707115399,6917.875,95.437,540.461,539.019,0.0
52638.0,STARLINK-3941,PAYLOAD,2024-06-12 12:35:46,15.08841147,0.0001137,53.2156,240.4904,101.5839,258.5281,2.2779e-05,7.5e-07,0.0,0 STARLINK-3941,1 52638U 22052AS  24164.52484022  .00000075  00000-0  22779-4 0  9992,2 52638  53.2156 240.4904 0001137 101.5839 258.5281 15.08841147115917,6917.877,95.437,540.528,538.955,0.0
52638.0,STARLINK-3941,PAYLOAD,2024-06-13 04:29:37,15.08838968,0.0001151,53.216,237.5168,95.5568,264.5555,0.00013097,1.797e-05,0.0,0 STARLINK-3941,1 52638U 22052AS  24165.18724278  .00001797  00000-0  13097-3 0  9999,2 52638  53.2160 237.5168 0001151  95.5568 264.5555 15.08838968115589,6917.884,95.438,540.545,538.952,0.0
52638.0,STARLINK-3941,PAYLOAD,2024-06-13 12:26:33,15.08844595,0.000124,53.2159,236.029,91.7307,268.3827,4.2189e-06,-2.21e-06,0.0,0 STARLINK-3941,1 52638U 22052AS  24165.51844066 -.00000221  00000-0  42189-5 0  9992,2 52638  53.2159 236.0290 0001240  91.7307 268.3827 15.08844595116066,6917.866,95.437,540.589,538.874,0.0
52638.0,STARLINK-3941,PAYLOAD,2024-06-14 13:52:44,15.08834929,0.0001161,53.2154,231.2698,97.2919,262.8205,0.00048766,7.481e-05,0.0,0 STARLINK-3941,1 52638U 22052AS  24166.57828738  .00007481  00000-0  48766-3 0  9996,2 52638  53.2154 231.2698 0001161  97.2919 262.8205 15.08834929116229,6917.896,95.438,540.564,538.958,0.0
52638.0,STARLINK-3941,PAYLOAD,2024-06-15 10:32:44,15.08843369,0.0001135,53.216,227.4028,95.8621,264.2501,7.1019e-05,8.43e-06,0.0,0 STARLINK-3941,1 52638U 22052AS  24167.43940284  .00000843  00000-0  71019-4 0  9996,2 52638  53.2160 227.4028 0001135  95.8621 264.2501 15.08843369116352,6917.87,95.437,540.52,538.95,0.0
52638.0,STARLINK-3941,PAYLOAD,2024-06-16 13:34:17,15.0884653,0.0001255,53.2157,222.3473,95.6031,264.5104,1.0508e-05,-1.21e-06,0.0,0 STARLINK-3941,1 52638U 22052AS  24168.56548077 -.00000121  00000-0  10508-4 0  9991,2 52638  53.2157 222.3473 0001255  95.6031 264.5104 15.08846530116526,6917.86,95.437,540.594,538.857,0.0
52638.0,STARLINK-3941,PAYLOAD,2024-06-17 10:14:18,15.08839479,0.0001209,53.2153,218.4824,88.8279,271.2852,4.3918e-05,4.11e-06,0.0,0 STARLINK-3941,1 52638U 22052AS  24169.42660670  .00000411  00000-0  43918-4 0  9993,2 52638  53.2153 218.4824 0001209  88.8279 271.2852 15.08839479116658,6917.882,95.438,540.583,538.911,0.0
52638.0,STARLINK-3941,PAYLOAD,2024-06-18 10:05:05,15.08841433,0.0001139,53.2153,214.0227,88.1657,271.9466,6.7652e-05,7.89e-06,0.0,0 STARLINK-3941,1 52638U 22052AS  24170.42020464  .00000789  00000-0  67652-4 0  9995,2 52638  53.2153 214.0227 0001139  88.1657 271.9466 15.08841433116372,6917.876,95.437,540.529,538.953,0.0
52638.0,STARLINK-3941,PAYLOAD,2024-06-18 19:37:24,15.08841407,0.0001075,53.2145,212.2377,84.1893,275.9221,7.6534e-05,9.3e-06,0.0,0 STARLINK-3941,1 52638U 22052AS  24170.81764391  .00000930  00000-0  76534-4 0  9999,2 52638  53.2145 212.2377 0001075  84.1893 275.9221 15.08841407116864,6917.876,95.437,540.485,538.997,0.0
52638.0,STARLINK-3941,PAYLOAD,2024-06-19 11:31:16,15.08836109,0.0001245,53.2163,209.2656,89.2516,270.8618,7.4563e-05,8.99e-06,0.0,0 STARLINK-3941,1 52638U 22052AS  24171.48004984  .00000899  00000-0  74563-4 0  9992,2 52638  53.2163 209.2656 0001245  89.2516 270.8618 15.08836109116538,6917.892,95.438,540.619,538.896,0.0
52638.0,STARLINK-3941,PAYLOAD,2024-06-20 09:46:40,15.08833843,0.0001283,53.2164,205.1026,89.4591,270.6549,6.2749e-05,7.11e-06,0.0,0 STARLINK-3941,1 52638U 22052AS  24172.40741364  .00000711  00000-0  62749-4 0  9991,2 52638  53.2164 205.1026 0001283  89.4591 270.6549 15.08833843117109,6917.899,95.438,540.652,538.877,0.0
52638.0,STARLINK-3941,PAYLOAD,2024-06-20 19:18:59,15.08839375,0.0001288,53.2164,203.3184,85.5975,274.5164,1.3721e-05,-7e-07,0.0,0 STARLINK-3941,1 52638U 22052AS  24172.80485205 -.00000070  00000-0  13721-4 0  9999,2 52638  53.2164 203.3184 0001288  85.5975 274.5164 15.08839375116732,6917.882,95.438,540.638,538.856,0.0
52638.0,STARLINK-3941,PAYLOAD,2024-06-21 09:37:27,15.08838652,0.0001271,53.2161,200.6415,86.3393,273.7744,3.999e-05,3.49e-06,0.0,0 STARLINK-3941,1 52638U 22052AS  24173.40101267  .00000349  00000-0  39990-4 0  9993,2 52638  53.2161 200.6415 0001271  86.3393 273.7744 15.08838652117251,6917.885,95.438,540.629,538.87,0.0
52638.0,STARLINK-3941,PAYLOAD,2024-06-22 11:03:37,15.08840875,0.0001269,53.2162,195.8825,87.6638,272.4499,6.3073e-05,7.16e-06,0.0,0 STARLINK-3941,1 52638U 22052AS  24174.46085124  .00000716  00000-0  63073-4 0  9990,2 52638  53.2162 195.8825 0001269  87.6638 272.4499 15.08840875116987,6917.878,95.437,540.621,538.865,0.0
52638.0,STARLINK-3941,PAYLOAD,2024-06-23 07:43:38,15.08842907,0.000125,53.2161,192.0172,87.68,272.4335,6.0972e-05,6.83e-06,0.0,0 STARLINK-3941,1 52638U 22052AS  24175.32196927  .00000683  00000-0  60972-4 0  9998,2 52638  53.2161 192.0172 0001250  87.6800 272.4335 15.08842907117541,6917.872,95.437,540.601,538.872,0.0
52638.0,STARLINK-3941,PAYLOAD,2024-06-24 04:23:38,15.08841888,0.0001308,53.2164,188.1519,95.0232,265.091,3.1788e-05,2.18e-06,0.0,0 STARLINK-3941,1 52638U 22052AS  24176.18308919  .00000218  00000-0  31788-4 0  9996,2 52638  53.2164 188.1519 0001308  95.0232 265.0910 15.08841888117242,6917.875,95.437,540.644,538.835,0.0
52638.0,STARLINK-3941,PAYLOAD,2024-06-24 07:34:25,15.08841761,0.0001303,53.2165,187.5573,94.3582,265.7559,2.7817e-05,1.55e-06,0.0,0 STARLINK-3941,1 52638U 22052AS  24176.31556917  .00000155  00000-0  27817-4 0  9992,2 52638  53.2165 187.5573 0001303  94.3582 265.7559 15.08841761117696,6917.875,95.437,540.641,538.839,0.0
52638.0,STARLINK-3941,PAYLOAD,2024-06-25 04:14:26,15.08834635,0.0001382,53.2167,183.6925,100.2456,259.8692,-1.987e-05,-6.04e-06,0.0,0 STARLINK-3941,1 52638U 22052AS  24177.17669579 -.00000604  00000-0 -19870-4 0  9997,2 52638  53.2167 183.6925 0001382 100.2456 259.8692 15.08834635117391,6917.897,95.438,540.718,538.806,0.0
52638.0,STARLINK-3941,PAYLOAD,2024-06-25 07:25:12,15.08835021,0.0001395,53.2167,183.0977,101.522,258.5929,-1.6643e-05,-5.53e-06,0.0,0 STARLINK-3941,1 52638U 22052AS  24177.30917563 -.00000553  00000-0 -16643-4 0  9999,2 52638  53.2167 183.0977 0001395 101.5220 258.5929 15.08835021117848,6917.896,95.438,540.726,538.796,0.0
52638.0,STARLINK-3941,PAYLOAD,2024-06-26 07:15:59,15.08838182,0.000143,53.2164,178.6391,105.8358,254.2792,4.8814e-05,4.89e-06,0.0,0 STARLINK-3941,1 52638U 22052AS  24178.30277352  .00000489  00000-0  48814-4 0  9996,2 52638  53.2164 178.6391 0001430 105.8358 254.2792 15.08838182117565,6917.886,95.438,540.74,538.762,0.0
52638.0,STARLINK-3941,PAYLOAD,2024-06-27 16:39:05,15.0883807,0.0001292,53.2155,172.3896,87.4155,272.6985,6.1279e-05,6.87e-06,0.0,0 STARLINK-3941,1 52638U 22052AS  24179.69381650  .00000687  00000-0  61279-4 0  9996,2 52638  53.2155 172.3896 0001292  87.4155 272.6985 15.08838070117779,6917.886,95.438,540.645,538.857,0.0
52638.0,STARLINK-3941,PAYLOAD,2024-06-28 06:57:34,15.08839269,0.0001368,53.2156,169.7125,86.5823,273.5326,3.5426e-05,2.76e-06,0.0,0 STARLINK-3941,1 52638U 22052AS  24180.28997779  .00000276  00000-0  35426-4 0  9997,2 52638  53.2156 169.7125 0001368  86.5823 273.5326 15.08839269118299,6917.883,95.438,540.694,538.801,0.0
